OBJECT_NAME,OBJECT_ID,EPOCH,MEAN_MOTION,ECCENTRICITY,INCLINATION,RA_OF_ASC_NODE,ARG_OF_PERICENTER,MEAN_ANOMALY,EPHEMERIS_TYPE,CLASSIFICATION_TYPE,NORAD_CAT_ID,ELEMENT_SET_NO,REV_AT_EPOCH,BSTAR,MEAN_MOTION_DOT,MEAN_MOTION_DDOT
SHIJIAN-31 (SJ-31),2026-136A,2026-07-15T14:04:51.394944,1.92226019,.6939983,63.4877,353.1548,171.8461,212.2864,0,U,69570,999,63,0,-.33E-5,0
CZ-3B R/B,2026-136B,2026-07-13T05:10:02.915328,2.38066580,.72567332,63.4303,350.8798,171.5015,216.3709,0,U,69571,999,63,.60349431E-3,.411847E-2,.89933E-7
GUOWANG OBJECT A,2026-137A,2026-07-12T21:25:09.001056,13.89812741,.0012495,49.9997,153.0717,311.3863,48.5960,0,U,69572,999,359,.2450247E-5,-.143E-5,0
GUOWANG OBJECT B,2026-137B,2026-07-09T15:41:33.480672,13.89803849,.00118595,50.0016,165.9303,298.8434,61.1273,0,U,69573,999,315,-.55136387E-4,-.214E-5,0
GUOWANG OBJECT C,2026-137C,2026-07-12T21:19:24.187296,13.89814739,.0011896,49.9967,153.0345,311.4365,48.5511,0,U,69574,999,360,-.2748005E-4,-.18E-5,0
GUOWANG OBJECT D,2026-137D,2026-07-09T15:38:20.572800,13.89827781,.00110869,49.9953,165.9027,299.2996,60.6794,0,U,69575,999,315,-.17667174E-4,-.168E-5,0
GUOWANG OBJECT E,2026-137E,2026-07-12T00:33:49.286304,13.89824941,.00112248,50.0038,156.4799,310.0552,49.9361,0,U,69576,999,348,-.46562868E-4,-.204E-5,0
GUOWANG OBJECT F,2026-137F,2026-07-11T07:17:14.089920,13.89809360,.00108344,50.0028,159.3340,307.7048,52.2867,0,U,69577,999,338,-.46814787E-4,-.204E-5,0
GUOWANG OBJECT G,2026-137G,2026-07-11T07:16:00.337152,13.89795025,.0010806,49.9952,159.3085,307.5258,52.4657,0,U,69578,999,338,.35461E-5,-.142E-5,0
GUOWANG OBJECT H,2026-137H,2026-07-10T00:11:03.674688,13.89776278,.00102494,50.0012,164.4679,306.3680,53.6272,0,U,69579,999,320,-.23862216E-4,-.175E-5,0
GUOWANG OBJECT J,2026-137J,2026-06-27T06:41:01.268160,13.91997107,.0011832,49.9961,215.0979,257.3150,102.6427,0,U,69580,999,143,.13174E-3,.22E-6,0
CZ-12 R/B,2026-137K,2026-07-13T06:43:04.828800,14.11694334,.0077441,49.9888,147.7098,203.1402,156.6010,0,U,69581,999,369,.22245E-4,-.112E-5,0
CENTISPACE-1 GROUP 05 OBJECT A,2026-138A,2026-07-13T08:11:08.213856,14.15470945,.00113082,55.1388,184.5993,340.3719,19.6818,0,U,69582,999,372,.51929226E-4,-.52E-6,0
CENTISPACE-1 GROUP 05 OBJECT B,2026-138B,2026-07-13T11:29:39.475104,14.15650579,.00102958,55.1382,184.0587,341.1535,18.9057,0,U,69583,999,374,.4298808E-5,-.145E-5,0
CENTISPACE-1 GROUP 05 OBJECT C,2026-138C,2026-07-13T11:27:23.172192,14.15734094,.00102279,55.1387,184.0592,342.7982,17.2644,0,U,69584,999,374,-.21642051E-4,-.196E-5,0
CENTISPACE-1 GROUP 05 OBJECT D,2026-138D,2026-07-13T11:22:41.050272,14.15919525,.0009819,55.1385,184.0335,342.0163,18.0463,0,U,69585,999,374,-.74601835E-4,-.301E-5,0
CENTISPACE-1 GROUP 05 OBJECT E,2026-138E,2026-07-13T16:25:52.489056,14.15986491,.00095717,55.1377,183.2516,343.0370,17.0283,0,U,69586,999,377,-.74193315E-4,-.301E-5,0
CENTISPACE-1 GROUP 05 OBJECT F,2026-138F,2026-07-12T23:31:05.217600,14.15909909,.00094364,55.1382,185.8680,345.5018,14.5684,0,U,69587,999,367,-.69904551E-4,-.292E-5,0
CENTISPACE-1 GROUP 05 OBJECT G,2026-138G,2026-07-12T09:53:32.912736,14.16073930,.00086294,55.1383,187.9363,344.0005,16.0696,0,U,69588,999,359,-.11166998E-3,-.375E-5,0
SPACEMOBILE-008,2026-139A,2026-07-15T05:15:12.949632,15.12801985,.00050681,52.9948,135.2997,56.5691,303.5784,0,U,69589,999,422,.16690427E-4,-.5E-7,0
SPACEMOBILE-009,2026-139B,2026-07-15T05:18:02.660832,15.12695316,.00053104,52.9939,135.3065,52.3964,307.7508,0,U,69590,999,422,.19438968E-4,.43E-6,0
SPACEMOBILE-010,2026-139C,2026-07-15T05:22:31.861632,15.12527718,.0005239,52.9945,135.3285,44.4295,315.7116,0,U,69591,999,423,.28987384E-4,.21E-5,0
KUIPER-00423,2026-140A,2026-07-15T12:10:32.828160,15.38565188,.0013544,51.8801,261.5405,271.1098,88.8338,0,U,69592,999,559,.27225E-3,.10172E-3,0
KUIPER-00428,2026-140B,2026-07-15T13:06:36.161568,15.36957818,.0007983,51.8791,261.7917,32.1313,328.0159,0,U,69593,999,559,.30103E-3,.10684E-3,0
KUIPER-00481,2026-140C,2026-07-15T12:26:50.208288,15.38035200,.0011127,51.8783,261.6078,281.5739,78.3999,0,U,69594,999,559,.46868E-3,.17494E-3,0
KUIPER-00490,2026-140D,2026-07-15T09:33:46.798848,15.37963668,.00065384,51.8773,262.2942,340.6675,19.4063,0,U,69595,999,557,.31116129E-3,.1143E-3,0
KUIPER-00493,2026-140E,2026-07-15T11:40:45.921504,15.36605930,.0008252,51.8796,262.1406,39.5476,320.6112,0,U,69596,999,558,.28030647E-3,.9805E-4,0
KUIPER-00496,2026-140F,2026-07-15T12:16:09.939360,15.34314068,.0010507,51.8786,262.2928,47.5263,312.6609,0,U,69597,999,558,.33895E-3,.11084E-3,0
KUIPER-00513,2026-140G,2026-07-15T12:36:08.688384,15.38170754,.0007673,51.8802,261.6562,337.1616,22.9029,0,U,69598,999,559,.51815E-3,.19455E-3,0
KUIPER-00516,2026-140H,2026-07-15T09:41:04.843392,15.37594249,.00071421,51.8775,262.3325,355.5111,4.5811,0,U,69599,999,557,.21162896E-3,.7549E-4,0
